[{"OBJECT_NAME":"STARLINK-35086","OBJECT_ID":"2025-212Z","EPOCH":"2026-03-09T23:32:16.168416","MEAN_MOTION":15.30212409,"ECCENTRICITY":7.912e-5,"INCLINATION":53.1609,"RA_OF_ASC_NODE":344.6383,"ARG_OF_PERICENTER":92.6375,"MEAN_ANOMALY":267.4717,"EPHEMERIS_TYPE":0,"CLASSIFICATION_TYPE":"U","NORAD_CAT_ID":65699,"ELEMENT_SET_NO":999,"REV_AT_EPOCH":2723,"BSTAR":0.00099950248,"MEAN_MOTION_DOT":0.00029372,"MEAN_MOTION_DDOT":0},{"OBJECT_NAME":"COSMOS 2251 DEB","OBJECT_ID":"1993-036N","EPOCH":"2026-03-09T20:39:34.848000","MEAN_MOTION":15.17003756,"ECCENTRICITY":0.00564486,"INCLINATION":74.0035,"RA_OF_ASC_NODE":352.1163,"ARG_OF_PERICENTER":60.1769,"MEAN_ANOMALY":300.5022,"EPHEMERIS_TYPE":0,"CLASSIFICATION_TYPE":"U","NORAD_CAT_ID":33765,"ELEMENT_SET_NO":999,"REV_AT_EPOCH":90936,"BSTAR":0.0026022202,"MEAN_MOTION_DOT":0.00053945,"MEAN_MOTION_DDOT":0}]
